[{"OBJECT_NAME":"ONEWEB-0246","OBJECT_ID":"2021-045V","EPOCH":"2026-02-27T02:56:20.313312","MEAN_MOTION":13.15547009,"ECCENTRICITY":0.00014806,"INCLINATION":87.8959,"RA_OF_ASC_NODE":281.1578,"ARG_OF_PERICENTER":87.7034,"MEAN_ANOMALY":272.4266,"EPHEMERIS_TYPE":0,"CLASSIFICATION_TYPE":"U","NORAD_CAT_ID":48786,"ELEMENT_SET_NO":999,"REV_AT_EPOCH":22980,"BSTAR":-2.496379e-6,"MEAN_MOTION_DOT":1.2e-7,"MEAN_MOTION_DDOT":0},{"OBJECT_NAME":"ONEWEB-0210","OBJECT_ID":"2021-045W","EPOCH":"2026-02-27T04:09:20.916864","MEAN_MOTION":13.15546999,"ECCENTRICITY":0.00010016,"INCLINATION":87.8952,"RA_OF_ASC_NODE":281.1443,"ARG_OF_PERICENTER":120.1898,"MEAN_ANOMALY":239.9331,"EPHEMERIS_TYPE":0,"CLASSIFICATION_TYPE":"U","NORAD_CAT_ID":48787,"ELEMENT_SET_NO":999,"REV_AT_EPOCH":22985,"BSTAR":-4.0439438e-5,"MEAN_MOTION_DOT":-2.0e-8,"MEAN_MOTION_DDOT":0},{"OBJECT_NAME":"ONEWEB-0214","OBJECT_ID":"2021-045X","EPOCH":"2026-02-27T04:21:54.670464","MEAN_MOTION":13.15546892,"ECCENTRICITY":0.00012425,"INCLINATION":87.8961,"RA_OF_ASC_NODE":281.1387,"ARG_OF_PERICENTER":91.9305,"MEAN_ANOMALY":268.1968,"EPHEMERIS_TYPE":0,"CLASSIFICATION_TYPE":"U","NORAD_CAT_ID":48788,"ELEMENT_SET_NO":999,"REV_AT_EPOCH":22982,"BSTAR":-0.00018622039,"MEAN_MOTION_DOT":-5.7e-7,"MEAN_MOTION_DDOT":0},{"OBJECT_NAME":"ONEWEB-0221","OBJECT_ID":"2021-045Y","EPOCH":"2026-02-27T02:42:38.787552","MEAN_MOTION":13.15547147,"ECCENTRICITY":0.00016122,"INCLINATION":87.8972,"RA_OF_ASC_NODE":281.1606,"ARG_OF_PERICENTER":96.8601,"MEAN_ANOMALY":263.2713,"EPHEMERIS_TYPE":0,"CLASSIFICATION_TYPE":"U","NORAD_CAT_ID":48789,"ELEMENT_SET_NO":999,"REV_AT_EPOCH":22990,"BSTAR":-4.7329689e-5,"MEAN_MOTION_DOT":-5.0e-8,"MEAN_MOTION_DDOT":0},{"OBJECT_NAME":"ONEWEB-0213","OBJECT_ID":"2021-045Z","EPOCH":"2026-02-27T02:26:40.839648","MEAN_MOTION":13.1554776,"ECCENTRICITY":0.00014794,"INCLINATION":87.8958,"RA_OF_ASC_NODE":281.1681,"ARG_OF_PERICENTER":98.3902,"MEAN_ANOMALY":261.7396,"EPHEMERIS_TYPE":0,"CLASSIFICATION_TYPE":"U","NORAD_CAT_ID":48790,"ELEMENT_SET_NO":999,"REV_AT_EPOCH":22996,"BSTAR":-0.00026694977,"MEAN_MOTION_DOT":-8.8e-7,"MEAN_MOTION_DDOT":0},{"OBJECT_NAME":"ONEWEB-0212","OBJECT_ID":"2021-045AA","EPOCH":"2026-02-27T03:43:06.799584","MEAN_MOTION":13.15547237,"ECCENTRICITY":0.00015969,"INCLINATION":87.8965,"RA_OF_ASC_NODE":281.1523,"ARG_OF_PERICENTER":85.8822,"MEAN_ANOMALY":274.2491,"EPHEMERIS_TYPE":0,"CLASSIFICATION_TYPE":"U","NORAD_CAT_ID":48791,"ELEMENT_SET_NO":999,"REV_AT_EPOCH":22996,"BSTAR":0.00036345453,"MEAN_MOTION_DOT":1.5e-6,"MEAN_MOTION_DDOT":0},{"OBJECT_NAME":"ONEWEB-0227","OBJECT_ID":"2021-045AB","EPOCH":"2026-02-27T03:41:58.642080","MEAN_MOTION":13.15547554,"ECCENTRICITY":0.00015866,"INCLINATION":87.8955,"RA_OF_ASC_NODE":281.156,"ARG_OF_PERICENTER":88.8456,"MEAN_ANOMALY":271.2856,"EPHEMERIS_TYPE":0,"CLASSIFICATION_TYPE":"U","NORAD_CAT_ID":48792,"ELEMENT_SET_NO":999,"REV_AT_EPOCH":22991,"BSTAR":0.00046119417,"MEAN_MOTION_DOT":1.86e-6,"MEAN_MOTION_DDOT":0},{"OBJECT_NAME":"ONEWEB-0226","OBJECT_ID":"2021-045AC","EPOCH":"2026-02-27T03:32:50.823744","MEAN_MOTION":13.15546841,"ECCENTRICITY":0.00013694,"INCLINATION":87.8947,"RA_OF_ASC_NODE":281.1663,"ARG_OF_PERICENTER":97.4468,"MEAN_ANOMALY":262.6818,"EPHEMERIS_TYPE":0,"CLASSIFICATION_TYPE":"U","NORAD_CAT_ID":48793,"ELEMENT_SET_NO":999,"REV_AT_EPOCH":22988,"BSTAR":0.00040875887,"MEAN_MOTION_DOT":1.67e-6,"MEAN_MOTION_DDOT":0},{"OBJECT_NAME":"ONEWEB-0224","OBJECT_ID":"2021-045AD","EPOCH":"2026-02-27T02:40:22.375776","MEAN_MOTION":13.1554797,"ECCENTRICITY":0.00024475,"INCLINATION":87.8951,"RA_OF_ASC_NODE":281.2092,"ARG_OF_PERICENTER":99.4643,"MEAN_ANOMALY":260.6764,"EPHEMERIS_TYPE":0,"CLASSIFICATION_TYPE":"U","NORAD_CAT_ID":48794,"ELEMENT_SET_NO":999,"REV_AT_EPOCH":22980,"BSTAR":-0.00016811386,"MEAN_MOTION_DOT":-5.0e-7,"MEAN_MOTION_DDOT":0},{"OBJECT_NAME":"ONEWEB-0233","OBJECT_ID":"2021-045AE","EPOCH":"2026-02-27T02:47:00.963168","MEAN_MOTION":13.15547039,"ECCENTRICITY":0.00017043,"INCLINATION":87.8948,"RA_OF_ASC_NODE":281.2174,"ARG_OF_PERICENTER":97.9635,"MEAN_ANOMALY":262.1689,"EPHEMERIS_TYPE":0,"CLASSIFICATION_TYPE":"U","NORAD_CAT_ID":48795,"ELEMENT_SET_NO":999,"REV_AT_EPOCH":22982,"BSTAR":-0.00028707997,"MEAN_MOTION_DOT":-9.5e-7,"MEAN_MOTION_DDOT":0},{"OBJECT_NAME":"ONEWEB-0190","OBJECT_ID":"2021-045AF","EPOCH":"2026-02-27T02:28:57.755136","MEAN_MOTION":13.15547498,"ECCENTRICITY":0.00015446,"INCLINATION":87.8946,"RA_OF_ASC_NODE":281.1813,"ARG_OF_PERICENTER":115.2877,"MEAN_ANOMALY":244.8413,"EPHEMERIS_TYPE":0,"CLASSIFICATION_TYPE":"U","NORAD_CAT_ID":48796,"ELEMENT_SET_NO":999,"REV_AT_EPOCH":22989,"BSTAR":-0.0002959292,"MEAN_MOTION_DOT":-9.9e-7,"MEAN_MOTION_DDOT":0},{"OBJECT_NAME":"ONEWEB-0236","OBJECT_ID":"2021-045AG","EPOCH":"2026-02-27T02:54:03.422016","MEAN_MOTION":13.1554696,"ECCENTRICITY":0.00016947,"INCLINATION":87.8944,"RA_OF_ASC_NODE":281.1889,"ARG_OF_PERICENTER":84.285,"MEAN_ANOMALY":275.8474,"EPHEMERIS_TYPE":0,"CLASSIFICATION_TYPE":"U","NORAD_CAT_ID":48797,"ELEMENT_SET_NO":999,"REV_AT_EPOCH":22978,"BSTAR":3.4638192e-5,"MEAN_MOTION_DOT":2.6e-7,"MEAN_MOTION_DDOT":0},{"OBJECT_NAME":"ONEWEB-0248","OBJECT_ID":"2021-045AH","EPOCH":"2026-02-27T03:12:19.614240","MEAN_MOTION":13.15538622,"ECCENTRICITY":0.00018845,"INCLINATION":87.8956,"RA_OF_ASC_NODE":281.1591,"ARG_OF_PERICENTER":103.5437,"MEAN_ANOMALY":256.5904,"EPHEMERIS_TYPE":0,"CLASSIFICATION_TYPE":"U","NORAD_CAT_ID":48798,"ELEMENT_SET_NO":999,"REV_AT_EPOCH":22994,"BSTAR":-0.002581973,"MEAN_MOTION_DOT":-9.59e-6,"MEAN_MOTION_DDOT":0},{"OBJECT_NAME":"ONEWEB-0225","OBJECT_ID":"2021-045AJ","EPOCH":"2026-02-27T03:44:15.253440","MEAN_MOTION":13.15547012,"ECCENTRICITY":0.00015142,"INCLINATION":87.895,"RA_OF_ASC_NODE":281.1715,"ARG_OF_PERICENTER":109.7458,"MEAN_ANOMALY":250.3836,"EPHEMERIS_TYPE":0,"CLASSIFICATION_TYPE":"U","NORAD_CAT_ID":48799,"ELEMENT_SET_NO":999,"REV_AT_EPOCH":22995,"BSTAR":0.00034890995,"MEAN_MOTION_DOT":1.44e-6,"MEAN_MOTION_DDOT":0},{"OBJECT_NAME":"ONEWEB-0215","OBJECT_ID":"2021-045AK","EPOCH":"2026-02-27T03:00:54.997056","MEAN_MOTION":13.15547377,"ECCENTRICITY":0.00017053,"INCLINATION":87.8958,"RA_OF_ASC_NODE":281.1493,"ARG_OF_PERICENTER":110.4836,"MEAN_ANOMALY":249.6478,"EPHEMERIS_TYPE":0,"CLASSIFICATION_TYPE":"U","NORAD_CAT_ID":48800,"ELEMENT_SET_NO":999,"REV_AT_EPOCH":22982,"BSTAR":0.0001180797,"MEAN_MOTION_DOT":5.7e-7,"MEAN_MOTION_DDOT":0},{"OBJECT_NAME":"ONEWEB-0216","OBJECT_ID":"2021-045AL","EPOCH":"2026-02-27T03:14:35.394432","MEAN_MOTION":13.15547265,"ECCENTRICITY":0.00014032,"INCLINATION":87.8948,"RA_OF_ASC_NODE":281.1676,"ARG_OF_PERICENTER":88.2502,"MEAN_ANOMALY":271.8789,"EPHEMERIS_TYPE":0,"CLASSIFICATION_TYPE":"U","NORAD_CAT_ID":48801,"ELEMENT_SET_NO":999,"REV_AT_EPOCH":22983,"BSTAR":0.0006611297,"MEAN_MOTION_DOT":2.62e-6,"MEAN_MOTION_DDOT":0}]
