ONEWEB-0246             
1 48786U 21045V   26058.12245733  .00000012  00000+0 -24964-5 0  9996
2 48786  87.8959 281.1578 0001480  87.7034 272.4266 13.15547009229800
ONEWEB-0210             
1 48787U 21045W   26058.17315876 -.00000002  00000+0 -40439-4 0  9992
2 48787  87.8952 281.1443 0001001 120.1898 239.9331 13.15546999229857
ONEWEB-0214             
1 48788U 21045X   26058.18188276 -.00000057  00000+0 -18622-3 0  9994
2 48788  87.8961 281.1387 0001242  91.9305 268.1968 13.15546892229829
ONEWEB-0221             
1 48789U 21045Y   26058.11294893 -.00000005  00000+0 -47330-4 0  9993
2 48789  87.8972 281.1606 0001612  96.8601 263.2713 13.15547147229907
ONEWEB-0213             
1 48790U 21045Z   26058.10186157 -.00000088  00000+0 -26695-3 0  9998
2 48790  87.8958 281.1681 0001479  98.3902 261.7396 13.15547760229965
ONEWEB-0212             
1 48791U 21045AA  26058.15493981  .00000150  00000+0  36345-3 0  9991
2 48791  87.8965 281.1523 0001596  85.8822 274.2491 13.15547237229965
ONEWEB-0227             
1 48792U 21045AB  26058.15415095  .00000186  00000+0  46119-3 0  9991
2 48792  87.8955 281.1560 0001586  88.8456 271.2856 13.15547554229910
ONEWEB-0226             
1 48793U 21045AC  26058.14781046  .00000167  00000+0  40876-3 0  9996
2 48793  87.8947 281.1663 0001369  97.4468 262.6818 13.15546841229880
ONEWEB-0224             
1 48794U 21045AD  26058.11137009 -.00000050  00000+0 -16811-3 0  9993
2 48794  87.8951 281.2092 0002447  99.4643 260.6764 13.15547970229802
ONEWEB-0233             
1 48795U 21045AE  26058.11598337 -.00000095  00000+0 -28708-3 0  9996
2 48795  87.8948 281.2174 0001704  97.9635 262.1689 13.15547039229820
ONEWEB-0190             
1 48796U 21045AF  26058.10344624 -.00000099  00000+0 -29593-3 0  9991
2 48796  87.8946 281.1813 0001544 115.2877 244.8413 13.15547498229890
ONEWEB-0236             
1 48797U 21045AG  26058.12087294  .00000026  00000+0  34638-4 0  9996
2 48797  87.8944 281.1889 0001694  84.2850 275.8474 13.15546960229786
ONEWEB-0248             
1 48798U 21045AH  26058.13356035 -.00000959  00000+0 -25820-2 0  9998
2 48798  87.8956 281.1591 0001884 103.5437 256.5904 13.15538622229945
ONEWEB-0225             
1 48799U 21045AJ  26058.15573210  .00000144  00000+0  34891-3 0  9990
2 48799  87.8950 281.1715 0001514 109.7458 250.3836 13.15547012229959
ONEWEB-0215             
1 48800U 21045AK  26058.12563654  .00000057  00000+0  11808-3 0  9997
2 48800  87.8958 281.1493 0001705 110.4836 249.6478 13.15547377229827
ONEWEB-0216             
1 48801U 21045AL  26058.13513188  .00000262  00000+0  66113-3 0  9993
2 48801  87.8948 281.1676 0001403  88.2502 271.8789 13.15547265229836
